NORAD_CAT_ID,TLE_LINE0,TLE_LINE1,TLE_LINE2,CREATION_DATE,OBJECT_NAME,OBJECT_ID,EPOCH,MEAN_MOTION,ECCENTRICITY,INCLINATION,RA_OF_ASC_NODE,ARG_OF_PERICENTER,MEAN_ANOMALY,REV_AT_EPOCH,BSTAR,MEAN_MOTION_DOT,MEAN_MOTION_DDOT,SEMIMAJOR_AXIS,PERIOD,APOAPSIS,PERIAPSIS,OBJECT_TYPE,COUNTRY_CODE,LAUNCH_DATE,SITE,DECAY_DATE,LAUNCH_YEAR,LAUNCH_SEQ,EPOCH_FINAL,ORBIT_CLASS,EVENT,DURATION,RCS_SIZE
925,0 OPS 3062 DEB,1 00925U 64072  B 67268.05676733  .01266260 +00000-0 +00000-0 0  9994,2 00925 081.9371 096.3617 0018697 057.4878 302.8080 16.02129457161072,15/08/2004 23:35,OPS 3062 DEB,1964-072B,25/09/1967 01:21,16.02129457,0.0018697,81.9371,96.3617,57.4878,302.808,16107,0.0,0.0126626,0.0,6646.663,89.88,280.956,256.101,DEBRIS,US,07/09/1964,AFWTR,02/10/1967,1964,72,25/09/1967 02:43,LEO,1,1120,SMALL
926,0 OPS 3062 DEB,1 00926U 64072  C 66179.32447139  .45289951 +23429-0 +00000-0 0  9991,2 00926 082.0919 219.9092 0000000 236.1213 123.8786 16.24112573091959,15/08/2004 23:35,OPS 3062 DEB,1964-072C,28/06/1966 07:47,16.24112573,0.0,82.0919,219.9092,236.1213,123.8786,9195,0.0,0.45289951,0.23429,6586.55,88.663,208.415,208.415,DEBRIS,US,09/09/1964,AFWTR,30/06/1966,1964,72,28/06/1966 15:34,LEO,1,659,SMALL
927,0 OPS 3062 DEB,1 00927U 64072  D 66177.32543726  .03168388 +23396-1 +00000-0 0  9997,2 00927 081.9716 219.8472 0000000 255.2486 104.7512 15.99898252091601,15/08/2004 23:35,OPS 3062 DEB,1964-072D,26/06/1966 07:48,15.99898252,0.0,81.9716,219.8472,255.2486,104.7512,9160,0.0,0.03168388,0.023396,6652.842,90.005,274.707,274.707,DEBRIS,US,11/09/1964,AFWTR,30/06/1966,1964,72,26/06/1966 15:37,LEO,1,657,SMALL
930,0 OPS 3360 (ORBIS),1 00930U 64075  A 64338.20204994  .02040804 +00000-0 +00000-0 0  9996,2 00930 070.0252 038.4657 0082435 078.5327 282.3922 16.19262144002317,15/08/2004 23:35,OPS 3360 (ORBIS),1964-075A,03/12/1964 04:50,16.19262144,0.0082435,70.0252,38.4657,78.5327,282.3922,231,0.0,0.02040804,0.0,6599.697,88.929,275.966,167.157,PAYLOAD,US,21/09/1964,AFWTR,06/12/1964,1964,75,03/12/1964 09:41,LEO,1,76,MEDIUM
931,0 EXPLORER 24 (ADI-2),1 00931U 64076  A 68291.40669611  .06862933 +00000-0 +00000-0 0  9992,2 00931 081.2693 313.6019 0029107 012.9619 347.2257 15.61557788184819,15/08/2004 23:36,EXPLORER 24 (ADI-2),1964-076A,17/10/1968 09:45,15.61557788,0.0029107,81.2693,313.6019,12.9619,347.2257,18481,0.0,0.06862933,0.0,6761.298,92.215,402.843,363.482,PAYLOAD,US,23/09/1964,AFETR,18/10/1968,1964,76,17/10/1968 19:31,LEO,1,1486,MEDIUM
932,0 EXPLORER 25 (INJUN-4),1 00932U 64076B   25193.34020051  .00000223  00000-0  78568-4 0  9997,2 00932  81.3411 279.9515 1119646 318.9755  33.2114 12.66764953776090,12/07/2025 17:51,EXPLORER 25 (INJUN-4),1964-076B,12/07/2025 08:09,12.66764953,0.1119646,81.3411,279.9515,318.9755,33.2114,77609,7.86e-05,2.23e-06,0.0,7773.283,113.675,2265.481,524.816,PAYLOAD,US,21/11/1964,AFWTR,,1964,76,12/07/2025 16:19,LEO,0,22149,MEDIUM
933,0 SCOUT X-4 R/B,1 00933U 64076C   25193.36521923  .00000942  00000-0  30742-3 0  9993,2 00933  81.3351  58.2339 1053984  64.9263 305.7445 12.81669003793034,12/07/2025 17:51,SCOUT X-4 R/B,1964-076C,12/07/2025 08:45,12.81669003,0.1053984,81.3351,58.2339,64.9263,305.7445,79303,0.00030742,9.42e-06,0.0,7712.904,112.354,2147.697,521.841,ROCKET BODY,US,21/11/1964,AFWTR,,1964,76,12/07/2025 17:31,LEO,0,22149,LARGE
934,0 SCOUT X-4 DEB,1 00934U 64076  D 82274.49598860  .06016954 +00000-0 +21947-1 0  9996,2 00934 081.1917 108.2485 0034672 027.9165 332.6417 15.87337445846455,16/08/2004 23:15,SCOUT X-4 DEB,1964-076D,01/10/1982 11:54,15.87337445,0.0034672,81.1917,108.2485,27.9165,332.6417,84645,0.021947,0.06016954,0.0,6687.892,90.717,332.945,286.569,DEBRIS,US,21/11/1964,AFWTR,02/10/1982,1964,76,01/10/1982 23:48,LEO,1,6524,SMALL
935,0 SCOUT X-4 DEB,1 00935U 64076  E 84147.23839184 -.68367341 +88511-0 +13911-1 0  9990,2 00935 081.2819 235.4073 0026102 331.5877 028.3976 16.08603731933057,16/08/2004 23:16,SCOUT X-4 DEB,1964-076E,26/05/1984 05:43,16.08603731,0.0026102,81.2819,235.4073,331.5877,28.3976,93305,0.013911,-0.68367341,0.88511,6628.817,89.518,267.985,233.38,DEBRIS,US,21/11/1964,AFWTR,28/05/1984,1964,76,26/05/1984 11:26,LEO,1,7128,SMALL
936,0 SCOUT X-4 DEB,1 00936U 64076  F 68092.69160907  .10848093 +00000-0 +00000-0 0  9997,2 00936 081.0884 115.5522 0088887 166.0637 193.9742 15.55271881158145,15/08/2004 23:36,SCOUT X-4 DEB,1964-076F,01/04/1968 16:35,15.55271881,0.0088887,81.0884,115.5522,166.0637,193.9742,15814,0.0,0.10848093,0.0,6779.503,92.588,461.629,341.107,DEBRIS,US,25/09/1964,AFWTR,03/04/1968,1964,76,02/04/1968 09:11,LEO,1,1286,SMALL
937,0 SCOUT X-4 DEB,1 00937U 64076  G 81108.56901985  .08336411 -99112-6 +20860-1 0  9995,2 00937 081.2360 169.1939 0034525 105.0352 255.4743 15.94565669780296,16/08/2004 23:12,SCOUT X-4 DEB,1964-076G,18/04/1981 13:39,15.94565669,0.0034525,81.236,169.1939,105.0352,255.4743,78029,0.02086,0.08336411,-9.91e-07,6667.666,90.306,312.551,266.511,DEBRIS,US,21/11/1964,AFWTR,19/04/1981,1964,76,19/04/1981 03:18,LEO,1,5993,SMALL
939,0 SCOUT X-4 DEB,1 00939U 64076  H 68120.47254004  .10195438 +00000-0 +00000-0 0  9998,2 00939 081.2012 085.2908 0047794 117.7714 242.8410 15.67855063162509,15/08/2004 23:36,SCOUT X-4 DEB,1964-076H,29/04/1968 11:20,15.67855063,0.0047794,81.2012,85.2908,117.7714,242.841,16250,0.0,0.10195438,0.0,6743.181,91.845,397.274,332.818,DEBRIS,US,27/09/1964,AFWTR,30/04/1968,1964,76,29/04/1968 22:40,LEO,1,1311,SMALL
940,0 SCOUT X-4 DEB,1 00940U 64076  N 81069.70187216  .04558322 +00000-0 +24541-1 0  9998,2 00940 081.2634 168.7283 0024302 106.0706 252.8416 15.79682252777405,16/08/2004 23:12,SCOUT X-4 DEB,1964-076N,10/03/1981 16:50,15.79682252,0.0024302,81.2634,168.7283,106.0706,252.8416,77740,0.024541,0.04558322,0.0,6709.481,91.157,347.651,315.041,DEBRIS,US,21/11/1964,AFWTR,13/03/1981,1964,76,11/03/1981 09:41,LEO,1,5956,SMALL
941,0 SCOUT X-4 DEB,1 00941U 64076  J 78363.09478405  .00010910 +00000-0 +00000-0 0  9992,2 00941 081.3650 031.6757 0983875 014.8954 347.8996 12.98537838652271,15/08/2004 23:41,SCOUT X-4 DEB,1964-076J,29/12/1978 02:16,12.98537838,0.0983875,81.365,31.6757,14.8954,347.8996,65227,0.0,0.0001091,0.0,7645.966,110.893,2020.098,515.563,DEBRIS,US,21/11/1964,AFWTR,22/02/1979,1964,76,29/12/1978 04:32,LEO,1,5206,SMALL
943,0 SL-6 R/B,1 00943U 64078  A 64335.61555622  .01523359 +00000-0 +00000-0 0  9992,2 00943 064.7647 306.3767 0070205 307.0271 052.3326 16.31078822000018,15/08/2004 23:35,SL-6 R/B,1964-078A,30/11/1964 14:46,16.31078822,0.0070205,64.7647,306.3767,307.0271,52.3326,1,0.0,0.01523359,0.0,6567.783,88.285,235.757,143.539,ROCKET BODY,CIS,01/10/1964,PKMTR,01/12/1964,1964,78,01/12/1964 05:32,LEO,1,61,LARGE
944,0 SL-6 PLAT,1 00944U 64078  B 64335.92268778  .01590952 +00000-0 +00000-0 0  9993,2 00944 064.7079 305.0917 0025401 328.0575 031.8871 16.29384459000064,15/08/2004 23:35,SL-6 PLAT,1964-078B,30/11/1964 22:08,16.29384459,0.0025401,64.7079,305.0917,328.0575,31.8871,6,0.0,0.01590952,0.0,6572.335,88.376,210.895,177.506,DEBRIS,CIS,03/10/1964,PKMTR,02/12/1964,1964,78,01/12/1964 20:17,LEO,1,60,SMALL
947,0 COSMOS 51,1 00947U 64080  A 65318.01665019  .02148720 +57745-2 +00000-0 0  9993,2 00947 048.7355 317.2960 0000000 000.0000 359.9999 16.35488341053477,15/08/2004 23:35,COSMOS 51,1964-080A,14/11/1965 00:23,16.35488341,0.0,48.7355,317.296,0.0,359.9999,5347,0.0,0.0214872,0.0057745,6555.972,88.047,177.837,177.837,PAYLOAD,CIS,05/10/1964,PKMTR,14/11/1965,1964,80,14/11/1965 00:47,LEO,1,405,MEDIUM
948,0 SL-7 R/B,1 00948U 64080  B 65130.13443291  .02600888 +21636-1 +00000-0 0  9992,2 00948 048.7584 266.8131 0009848 148.0826 212.0220 16.26037276023828,15/08/2004 23:35,SL-7 R/B,1964-080B,10/05/1965 03:13,16.26037276,0.0009848,48.7584,266.8131,148.0826,212.022,2382,0.0,0.02600888,0.021636,6581.352,88.558,209.698,196.735,ROCKET BODY,CIS,07/10/1964,PKMTR,11/05/1965,1964,80,10/05/1965 06:27,LEO,1,216,LARGE
949,0 TITAN 3A TRANSTAGE R/B,1 00949U 64081  A 64346.29791305  .02480701 +00000-0 +00000-0 0  9992,2 00949 032.1529 128.0085 0010809 268.0693 091.7744 16.36278480000100,15/08/2004 23:35,TITAN 3A TRANSTAGE R/B,1964-081A,11/12/1964 07:08,16.3627848,0.0010809,32.1529,128.0085,268.0693,91.7744,10,0.0,0.02480701,0.0,6553.862,88.004,182.811,168.643,ROCKET BODY,US,17/10/1964,AFETR,13/12/1964,1964,81,11/12/1964 14:17,LEO,1,57,LARGE
950,0 SL-7 DEB,1 00950U 64080  C 64359.07644125  .01281828 +31715-2 +00000-0 0  9997,2 00950 048.7468 295.5148 0112416 186.8484 172.9957 15.82985394002221,15/08/2004 23:35,SL-7 DEB,1964-080C,24/12/1964 01:50,15.82985394,0.0112416,48.7468,295.5148,186.8484,172.9957,222,0.0,0.01281828,0.0031715,6700.144,90.967,397.33,246.689,DEBRIS,CIS,09/10/1964,PKMTR,29/12/1964,1964,80,24/12/1964 03:40,LEO,1,81,SMALL
952,0 SL-7 DEB,1 00952U 64080  D 64360.65178055  .01471950 +43796-2 +00000-0 0  9998,2 00952 048.7508 286.7361 0112646 192.8198 166.9777 15.87557677002475,15/08/2004 23:35,SL-7 DEB,1964-080D,25/12/1964 15:38,15.87557677,0.0112646,48.7508,286.7361,192.8198,166.9777,247,0.0,0.0147195,0.0043796,6687.273,90.705,384.468,233.809,DEBRIS,CIS,11/10/1964,PKMTR,01/01/1965,1964,80,26/12/1964 07:17,LEO,1,82,SMALL
953,0 THOR ABLESTAR R/B,1 00953U 64083A   25193.53085650  .00000036  00000-0  36262-4 0  9992,2 00953  90.0218 191.9720 0031506 355.3586 115.5237 13.58806344  2455,12/07/2025 17:51,THOR ABLESTAR R/B,1964-083A,12/07/2025 12:44,13.58806344,0.0031506,90.0218,191.972,355.3586,115.5237,245,3.63e-05,3.6e-07,0.0,7418.17,105.975,1063.407,1016.664,ROCKET BODY,US,13/12/1964,AFWTR,,1964,83,13/07/2025 01:28,LEO,0,22127,LARGE
954,0 SL-7 DEB,1 00954U 64080  E 64357.98340128  .01419153 +39474-2 +00000-0 0  9999,2 00954 048.7616 301.3055 0105462 182.7864 177.1543 15.84535671002053,15/08/2004 23:35,SL-7 DEB,1964-080E,22/12/1964 23:36,15.84535671,0.0105462,48.7616,301.3055,182.7864,177.1543,205,0.0,0.01419153,0.0039474,6695.773,90.878,388.253,247.023,DEBRIS,CIS,13/10/1964,PKMTR,01/01/1965,1964,80,23/12/1964 23:12,LEO,1,80,SMALL
